{
  "type": "FeatureCollection",
  "features": [
    {
      "type": "Feature",
      "properties": {
        "norad_id": 32214,
        "name": "FENGYUN 1C DEB",
        "group": "fengyun-1c-debris",
        "lat": -63.46564539789084,
        "lon": 164.55782919516855,
        "alt_km": 1072.6685061240769,
        "timestamp": "2025-12-03T06:58:43.524083+00:00",
        "meta_object_name": "FENGYUN 1C DEB",
        "meta_object_id": "1999-025CVL",
        "meta_epoch": "2025-12-02T20:17:42.705024",
        "meta_mean_motion": 13.90358485,
        "meta_eccentricity": 0.01891,
        "meta_inclination": 99.0445,
        "meta_ra_of_asc_node": 2.7262,
        "meta_arg_of_pericenter": 66.1769,
        "meta_mean_anomaly": 111.8247,
        "meta_ephemeris_type": 0,
        "meta_classification_type": "U",
        "meta_norad_cat_id": 32214,
        "meta_element_set_no": 999,
        "meta_rev_at_epoch": 62284,
        "meta_bstar": 0.005685,
        "meta_mean_motion_dot": 8.115e-05,
        "meta_mean_motion_ddot": 0,
        "tle_line1": "1 32214U 99025CVL 25336.84563316  .00008115  00000+0  56850-2 0  9992",
        "tle_line2": "2 32214  99.0445   2.7262 0189100  66.1769 111.8247 13.90358485622840"
      },
      "geometry": {
        "type": "Point",
        "coordinates": [
          164.55782919516855,
          -63.46564539789084
        ]
      }
    },
    {
      "type": "Feature",
      "properties": {
        "norad_id": 32218,
        "name": "FENGYUN 1C DEB",
        "group": "fengyun-1c-debris",
        "lat": 66.20072991622978,
        "lon": 150.04151944522536,
        "alt_km": 662.1219678639427,
        "timestamp": "2025-12-03T06:58:43.524093+00:00",
        "meta_object_name": "FENGYUN 1C DEB",
        "meta_object_id": "1999-025CVQ",
        "meta_epoch": "2025-12-02T09:45:23.156928",
        "meta_mean_motion": 14.55371327,
        "meta_eccentricity": 0.00631094,
        "meta_inclination": 98.8121,
        "meta_ra_of_asc_node": 169.7024,
        "meta_arg_of_pericenter": 98.601,
        "meta_mean_anomaly": 19.3079,
        "meta_ephemeris_type": 0,
        "meta_classification_type": "U",
        "meta_norad_cat_id": 32218,
        "meta_element_set_no": 999,
        "meta_rev_at_epoch": 96082,
        "meta_bstar": 0.00094720848,
        "meta_mean_motion_dot": 4.172e-05,
        "meta_mean_motion_ddot": 0,
        "tle_line1": "1 32218U 99025CVQ 25336.40651802  .00004172  00000+0  94721-3 0  9995",
        "tle_line2": "2 32218  98.8121 169.7024 0063109  98.6010  19.3079 14.55371327960821"
      },
      "geometry": {
        "type": "Point",
        "coordinates": [
          150.04151944522536,
          66.20072991622978
        ]
      }
    },
    {
      "type": "Feature",
      "properties": {
        "norad_id": 32221,
        "name": "FENGYUN 1C DEB",
        "group": "fengyun-1c-debris",
        "lat": -27.86565671816599,
        "lon": -57.65361258441642,
        "alt_km": 616.3229193806183,
        "timestamp": "2025-12-03T06:58:43.524103+00:00",
        "meta_object_name": "FENGYUN 1C DEB",
        "meta_object_id": "1999-025CVT",
        "meta_epoch": "2025-12-02T08:37:46.198272",
        "meta_mean_motion": 14.58616548,
        "meta_eccentricity": 0.01465125,
        "meta_inclination": 98.5645,
        "meta_ra_of_asc_node": 125.9566,
        "meta_arg_of_pericenter": 177.6443,
        "meta_mean_anomaly": 182.5478,
        "meta_ephemeris_type": 0,
        "meta_classification_type": "U",
        "meta_norad_cat_id": 32221,
        "meta_element_set_no": 999,
        "meta_rev_at_epoch": 97046,
        "meta_bstar": 0.00060942871,
        "meta_mean_motion_dot": 3.237e-05,
        "meta_mean_motion_ddot": 0,
        "tle_line1": "1 32221U 99025CVT 25336.35956248  .00003237  00000+0  60943-3 0  9995",
        "tle_line2": "2 32221  98.5645 125.9566 0146512 177.6443 182.5478 14.58616548970463"
      },
      "geometry": {
        "type": "Point",
        "coordinates": [
          -57.65361258441642,
          -27.86565671816599
        ]
      }
    },
    {
      "type": "Feature",
      "properties": {
        "norad_id": 32223,
        "name": "FENGYUN 1C DEB",
        "group": "fengyun-1c-debris",
        "lat": -59.8311933768532,
        "lon": 71.88161492219284,
        "alt_km": 806.7748901397008,
        "timestamp": "2025-12-03T06:58:43.524113+00:00",
        "meta_object_name": "FENGYUN 1C DEB",
        "meta_object_id": "1999-025CVV",
        "meta_epoch": "2025-11-30T11:44:46.391712",
        "meta_mean_motion": 14.20788373,
        "meta_eccentricity": 0.00466055,
        "meta_inclination": 98.8399,
        "meta_ra_of_asc_node": 53.5518,
        "meta_arg_of_pericenter": 354.1065,
        "meta_mean_anomaly": 24.7896,
        "meta_ephemeris_type": 0,
        "meta_classification_type": "U",
        "meta_norad_cat_id": 32223,
        "meta_element_set_no": 999,
        "meta_rev_at_epoch": 64050,
        "meta_bstar": 0.0013650533,
        "meta_mean_motion_dot": 2.935e-05,
        "meta_mean_motion_ddot": 0,
        "tle_line1": "1 32223U 99025CVV 25334.48942583  .00002935  00000+0  13651-2 0  9993",
        "tle_line2": "2 32223  98.8399  53.5518 0046605 354.1065  24.7896 14.20788373640506"
      },
      "geometry": {
        "type": "Point",
        "coordinates": [
          71.88161492219284,
          -59.8311933768532
        ]
      }
    },
    {
      "type": "Feature",
      "properties": {
        "norad_id": 32224,
        "name": "FENGYUN 1C DEB",
        "group": "fengyun-1c-debris",
        "lat": -36.06606728553214,
        "lon": -65.44702640140025,
        "alt_km": 820.0761814397401,
        "timestamp": "2025-12-03T06:58:43.524123+00:00",
        "meta_object_name": "FENGYUN 1C DEB",
        "meta_object_id": "1999-025CVW",
        "meta_epoch": "2025-12-02T07:42:20.079072",
        "meta_mean_motion": 14.33989885,
        "meta_eccentricity": 0.00771432,
        "meta_inclination": 98.9822,
        "meta_ra_of_asc_node": 286.9314,
        "meta_arg_of_pericenter": 96.5488,
        "meta_mean_anomaly": 264.4485,
        "meta_ephemeris_type": 0,
        "meta_classification_type": "U",
        "meta_norad_cat_id": 32224,
        "meta_element_set_no": 999,
        "meta_rev_at_epoch": 95574,
        "meta_bstar": 0.00039198885,
        "meta_mean_motion_dot": 1.084e-05,
        "meta_mean_motion_ddot": 0,
        "tle_line1": "1 32224U 99025CVW 25336.32106573  .00001084  00000+0  39199-3 0  9990",
        "tle_line2": "2 32224  98.9822 286.9314 0077143  96.5488 264.4485 14.33989885955749"
      },
      "geometry": {
        "type": "Point",
        "coordinates": [
          -65.44702640140025,
          -36.06606728553214
        ]
      }
    },
    {
      "type": "Feature",
      "properties": {
        "norad_id": 32225,
        "name": "FENGYUN 1C DEB",
        "group": "fengyun-1c-debris",
        "lat": -80.58810068330018,
        "lon": 100.8647272428488,
        "alt_km": 816.2062565440701,
        "timestamp": "2025-12-03T06:58:43.524133+00:00",
        "meta_object_name": "FENGYUN 1C DEB",
        "meta_object_id": "1999-025CVX",
        "meta_epoch": "2025-12-02T09:17:58.336800",
        "meta_mean_motion": 14.13030511,
        "meta_eccentricity": 0.00713215,
        "meta_inclination": 99.0934,
        "meta_ra_of_asc_node": 24.8898,
        "meta_arg_of_pericenter": 235.8131,
        "meta_mean_anomaly": 123.6266,
        "meta_ephemeris_type": 0,
        "meta_classification_type": "U",
        "meta_norad_cat_id": 32225,
        "meta_element_set_no": 999,
        "meta_rev_at_epoch": 67970,
        "meta_bstar": 0.00030097544,
        "meta_mean_motion_dot": 5.29e-06,
        "meta_mean_motion_ddot": 0,
        "tle_line1": "1 32225U 99025CVX 25336.38748075  .00000529  00000+0  30098-3 0  9998",
        "tle_line2": "2 32225  99.0934  24.8898 0071321 235.8131 123.6266 14.13030511679700"
      },
      "geometry": {
        "type": "Point",
        "coordinates": [
          100.8647272428488,
          -80.58810068330018
        ]
      }
    },
    {
      "type": "Feature",
      "properties": {
        "norad_id": 32230,
        "name": "FENGYUN 1C DEB",
        "group": "fengyun-1c-debris",
        "lat": 81.02952486443245,
        "lon": 44.67176496839675,
        "alt_km": 667.2774625644806,
        "timestamp": "2025-12-03T06:58:43.524143+00:00",
        "meta_object_name": "FENGYUN 1C DEB",
        "meta_object_id": "1999-025CWC",
        "meta_epoch": "2025-11-30T09:24:55.537344",
        "meta_mean_motion": 14.55588472,
        "meta_eccentricity": 0.00526929,
        "meta_inclination": 98.8709,
        "meta_ra_of_asc_node": 123.2328,
        "meta_arg_of_pericenter": 127.3302,
        "meta_mean_anomaly": 261.6517,
        "meta_ephemeris_type": 0,
        "meta_classification_type": "U",
        "meta_norad_cat_id": 32230,
        "meta_element_set_no": 999,
        "meta_rev_at_epoch": 60490,
        "meta_bstar": 0.0036213421,
        "meta_mean_motion_dot": 0.00016074,
        "meta_mean_motion_ddot": 0,
        "tle_line1": "1 32230U 99025CWC 25334.39230946  .00016074  00000+0  36213-2 0  9992",
        "tle_line2": "2 32230  98.8709 123.2328 0052692 127.3302 261.6517 14.55588472604902"
      },
      "geometry": {
        "type": "Point",
        "coordinates": [
          44.67176496839675,
          81.02952486443245
        ]
      }
    }
  ]
}